start=new Date('2023-01-04T00:00:00.000Z').valueOf();
sats=[{"RA_OF_ASC_NODE":"269.6608","EPOCH":"2023-01-03T10:38:23.907264","ELEMENT_SET_NO":"999","REF_FRAME":"TEME","CLASSIFICATION_TYPE":"U","LAUNCH_DATE":"2020-08-07","PERIOD":"95.592","TLE_LINE2":"2 46076  53.0534 269.6608 0001730  76.5095 283.6087 15.06401138134264","EPHEMERIS_TYPE":"0","MEAN_MOTION_DOT":"0.00003623","OBJECT_NAME":"STARLINK-1552","APOAPSIS":"548.408","COUNTRY_CODE":"US","ECCENTRICITY":"0.00017300","MEAN_MOTION_DDOT":"0.0000000000000","ARG_OF_PERICENTER":"76.5095","FILE":"3730926","CENTER_NAME":"EARTH","RCS_SIZE":"LARGE","SITE":"AFETR","NORAD_CAT_ID":"46076","SEMIMAJOR_AXIS":"6925.345","TLE_LINE1":"1 46076U 20055BB  23003.44333226  .00003623  00000-0  26201-3 0  9998","TIME_SYSTEM":"UTC","MEAN_ELEMENT_THEORY":"SGP4","BSTAR":"0.00026201000000","INCLINATION":"53.0534","DECAY_DATE":null,"OBJECT_TYPE":"PAYLOAD","OBJECT_ID":"2020-055BB","REV_AT_EPOCH":"13426","GP_ID":"222109260","PERIAPSIS":"546.012","MEAN_MOTION":"15.06401138","MEAN_ANOMALY":"283.6087"},{"PERIOD":"95.591","TLE_LINE2":"2 46077  53.0546 269.7506 0001802  58.9492 301.1673 15.06410327134235","LAUNCH_DATE":"2020-08-07","CLASSIFICATION_TYPE":"U","REF_FRAME":"TEME","ELEMENT_SET_NO":"999","RA_OF_ASC_NODE":"269.7506","EPOCH":"2023-01-03T10:11:51.340992","RCS_SIZE":"LARGE","ARG_OF_PERICENTER":"58.9492","MEAN_MOTION_DDOT":"0.0000000000000","CENTER_NAME":"EARTH","FILE":"3730926","COUNTRY_CODE":"US","ECCENTRICITY":"0.00018020","OBJECT_NAME":"STARLINK-1559","EPHEMERIS_TYPE":"0","MEAN_MOTION_DOT":"0.00007226","APOAPSIS":"548.430","MEAN_ELEMENT_THEORY":"SGP4","BSTAR":"0.00050336000000","TIME_SYSTEM":"UTC","TLE_LINE1":"1 46077U 20055BC  23003.42489978  .00007226  00000-0  50336-3 0  9992","SEMIMAJOR_AXIS":"6925.317","NORAD_CAT_ID":"46077","SITE":"AFETR","MEAN_ANOMALY":"301.1673","PERIAPSIS":"545.934","GP_ID":"222110510","REV_AT_EPOCH":"13423","MEAN_MOTION":"15.06410327","OBJECT_TYPE":"PAYLOAD","OBJECT_ID":"2020-055BC","DECAY_DATE":null,"INCLINATION":"53.0546"},{"MEAN_ELEMENT_THEORY":"SGP4","BSTAR":"0.00048485000000","TIME_SYSTEM":"UTC","TLE_LINE1":"1 46078U 20055BD  23003.46912092  .00006948  00000-0  48485-3 0  9997","SEMIMAJOR_AXIS":"6925.334","NORAD_CAT_ID":"46078","SITE":"AFETR","MEAN_ANOMALY":"323.4922","GP_ID":"222110740","REV_AT_EPOCH":"13425","PERIAPSIS":"545.884","MEAN_MOTION":"15.06404655","OBJECT_TYPE":"PAYLOAD","OBJECT_ID":"2020-055BD","DECAY_DATE":null,"INCLINATION":"53.0533","PERIOD":"95.592","TLE_LINE2":"2 46078  53.0533 269.5419 0001899  36.6196 323.4922 15.06404655134256","LAUNCH_DATE":"2020-08-07","CLASSIFICATION_TYPE":"U","REF_FRAME":"TEME","ELEMENT_SET_NO":"999","RA_OF_ASC_NODE":"269.5419","EPOCH":"2023-01-03T11:15:32.047488","RCS_SIZE":"LARGE","ARG_OF_PERICENTER":"36.6196","MEAN_MOTION_DDOT":"0.0000000000000","CENTER_NAME":"EARTH","FILE":"3730926","COUNTRY_CODE":"US","ECCENTRICITY":"0.00018990","OBJECT_NAME":"STARLINK-1563","EPHEMERIS_TYPE":"0","MEAN_MOTION_DOT":"0.00006948","APOAPSIS":"548.514"},{"OBJECT_TYPE":"PAYLOAD","OBJECT_ID":"2020-055BE","DECAY_DATE":null,"INCLINATION":"53.0551","MEAN_ANOMALY":"314.5863","GP_ID":"222109511","PERIAPSIS":"546.011","REV_AT_EPOCH":"13428","MEAN_MOTION":"15.06397715","SEMIMAJOR_AXIS":"6925.356","NORAD_CAT_ID":"46079","SITE":"AFETR","MEAN_ELEMENT_THEORY":"SGP4","BSTAR":"0.00055048000000","TIME_SYSTEM":"UTC","TLE_LINE1":"1 46079U 20055BE  23003.46176261  .00007927  00000-0  55048-3 0  9999","COUNTRY_CODE":"US","ECCENTRICITY":"0.00017460","OBJECT_NAME":"STARLINK-1566","MEAN_MOTION_DOT":"0.00007927","EPHEMERIS_TYPE":"0","APOAPSIS":"548.430","RCS_SIZE":"LARGE","MEAN_MOTION_DDOT":"0.0000000000000","ARG_OF_PERICENTER":"45.5269","FILE":"3730926","CENTER_NAME":"EARTH","REF_FRAME":"TEME","ELEMENT_SET_NO":"999","RA_OF_ASC_NODE":"269.5840","EPOCH":"2023-01-03T11:04:56.289504","PERIOD":"95.592","TLE_LINE2":"2 46079  53.0551 269.5840 0001746  45.5269 314.5863 15.06397715134282","CLASSIFICATION_TYPE":"U","LAUNCH_DATE":"2020-08-07"},{"CENTER_NAME":"EARTH","FILE":"3730822","ARG_OF_PERICENTER":"71.8222","MEAN_MOTION_DDOT":"0.0000000000000","RCS_SIZE":"LARGE","APOAPSIS":"548.278","EPHEMERIS_TYPE":"0","MEAN_MOTION_DOT":"0.00003717","OBJECT_NAME":"STARLINK-1568","ECCENTRICITY":"0.00014570","COUNTRY_CODE":"US","LAUNCH_DATE":"2020-08-07","CLASSIFICATION_TYPE":"U","TLE_LINE2":"2 46080  53.0549 268.2699 0001457  71.8222 288.2926 15.06381946133790","PERIOD":"95.593","EPOCH":"2023-01-03T18:02:53.808288","RA_OF_ASC_NODE":"268.2699","ELEMENT_SET_NO":"999","REF_FRAME":"TEME","MEAN_MOTION":"15.06381946","GP_ID":"222087304","REV_AT_EPOCH":"13379","PERIAPSIS":"546.260","MEAN_ANOMALY":"288.2926","DECAY_DATE":null,"INCLINATION":"53.0549","OBJECT_ID":"2020-055BF","OBJECT_TYPE":"PAYLOAD","TLE_LINE1":"1 46080U 20055BF  23003.75201167  .00003717  00000-0  26844-3 0  9992","TIME_SYSTEM":"UTC","BSTAR":"0.00026844000000","MEAN_ELEMENT_THEORY":"SGP4","SITE":"AFETR","NORAD_CAT_ID":"46080","SEMIMAJOR_AXIS":"6925.404"},{"TLE_LINE2":"2 46081  53.0544 268.4111 0002211  45.8702 314.2468 15.06394003133788","PERIOD":"95.593","LAUNCH_DATE":"2020-08-07","CLASSIFICATION_TYPE":"U","REF_FRAME":"TEME","ELEMENT_SET_NO":"999","RA_OF_ASC_NODE":"268.4111","EPOCH":"2023-01-03T17:16:29.391168","RCS_SIZE":"LARGE","CENTER_NAME":"EARTH","FILE":"3730822","ARG_OF_PERICENTER":"45.8702","MEAN_MOTION_DDOT":"0.0000000000000","ECCENTRICITY":"0.00022110","COUNTRY_CODE":"US","APOAPSIS":"548.763","OBJECT_NAME":"STARLINK-1571","EPHEMERIS_TYPE":"0","MEAN_MOTION_DOT":"0.00006060","BSTAR":"0.00042545000000","MEAN_ELEMENT_THEORY":"SGP4","TIME_SYSTEM":"UTC","TLE_LINE1":"1 46081U 20055BG  23003.71978462  .00006060  00000-0  42545-3 0  9998","SEMIMAJOR_AXIS":"6925.367","NORAD_CAT_ID":"46081","SITE":"AFETR","MEAN_ANOMALY":"314.2468","MEAN_MOTION":"15.06394003","GP_ID":"222087612","PERIAPSIS":"545.701","REV_AT_EPOCH":"13378","OBJECT_ID":"2020-055BG","OBJECT_TYPE":"PAYLOAD","DECAY_DATE":null,"INCLINATION":"53.0544"},{"MEAN_MOTION":"15.06404267","GP_ID":"222110240","REV_AT_EPOCH":"13423","PERIAPSIS":"546.240","MEAN_ANOMALY":"266.1151","DECAY_DATE":null,"INCLINATION":"53.0519","OBJECT_ID":"2020-055BH","OBJECT_TYPE":"PAYLOAD","TIME_SYSTEM":"UTC","TLE_LINE1":"1 46082U 20055BH  23003.14477004  .00014338  00000-0  97935-3 0  9992","BSTAR":"0.00097935000000","MEAN_ELEMENT_THEORY":"SGP4","NORAD_CAT_ID":"46082","SITE":"AFETR","SEMIMAJOR_AXIS":"6925.335","CENTER_NAME":"EARTH","FILE":"3730926","ARG_OF_PERICENTER":"93.9996","MEAN_MOTION_DDOT":"0.0000000000000","RCS_SIZE":"LARGE","APOAPSIS":"548.161","OBJECT_NAME":"STARLINK-1578","EPHEMERIS_TYPE":"0","MEAN_MOTION_DOT":"0.00014338","ECCENTRICITY":"0.00013870","COUNTRY_CODE":"US","CLASSIFICATION_TYPE":"U","LAUNCH_DATE":"2020-08-07","TLE_LINE2":"2 46082  53.0519 271.0055 0001387  93.9996 266.1151 15.06404267134239","PERIOD":"95.592","EPOCH":"2023-01-03T03:28:28.131456","RA_OF_ASC_NODE":"271.0055","REF_FRAME":"TEME","ELEMENT_SET_NO":"999"},{"CENTER_NAME":"EARTH","FILE":"3730926","MEAN_MOTION_DDOT":"0.0000000000000","ARG_OF_PERICENTER":"107.7344","RCS_SIZE":"LARGE","APOAPSIS":"548.182","EPHEMERIS_TYPE":"0","MEAN_MOTION_DOT":"0.00005918","OBJECT_NAME":"STARLINK-1579","ECCENTRICITY":"0.00014280","COUNTRY_CODE":"US","CLASSIFICATION_TYPE":"U","LAUNCH_DATE":"2020-08-07","TLE_LINE2":"2 46083  53.0522 269.6475 0001428 107.7344 252.3801 15.06406732134272","PERIOD":"95.592","RA_OF_ASC_NODE":"269.6475","EPOCH":"2023-01-03T10:43:42.255840","ELEMENT_SET_NO":"999","REF_FRAME":"TEME","MEAN_MOTION":"15.06406732","REV_AT_EPOCH":"13427","GP_ID":"222109011","PERIAPSIS":"546.204","MEAN_ANOMALY":"252.3801","DECAY_DATE":null,"INCLINATION":"53.0522","OBJECT_ID":"2020-055BJ","OBJECT_TYPE":"PAYLOAD","TLE_LINE1":"1 46083U 20055BJ  23003.44701685  .00005918  00000-0  41576-3 0  9995","TIME_SYSTEM":"UTC","BSTAR":"0.00041576000000","MEAN_ELEMENT_THEORY":"SGP4","SITE":"AFETR","NORAD_CAT_ID":"46083","SEMIMAJOR_AXIS":"6925.328"},{"COUNTRY_CODE":"US","ECCENTRICITY":"0.00016500","OBJECT_NAME":"STARLINK-1585","MEAN_MOTION_DOT":"0.00003920","EPHEMERIS_TYPE":"0","APOAPSIS":"548.383","RCS_SIZE":"LARGE","ARG_OF_PERICENTER":"52.4127","MEAN_MOTION_DDOT":"0.0000000000000","CENTER_NAME":"EARTH","FILE":"3730799","REF_FRAME":"TEME","ELEMENT_SET_NO":"999","RA_OF_ASC_NODE":"108.9039","EPOCH":"2023-01-03T14:42:32.917536","PERIOD":"95.593","TLE_LINE2":"2 46117  53.0537 108.9039 0001650  52.4127 307.7012 15.06391269132005","LAUNCH_DATE":"2020-08-18","CLASSIFICATION_TYPE":"U","OBJECT_TYPE":"PAYLOAD","OBJECT_ID":"2020-057A","DECAY_DATE":null,"INCLINATION":"53.0537","MEAN_ANOMALY":"307.7012","REV_AT_EPOCH":"13200","GP_ID":"222086436","PERIAPSIS":"546.098","MEAN_MOTION":"15.06391269","SEMIMAJOR_AXIS":"6925.375","NORAD_CAT_ID":"46117","SITE":"AFETR","MEAN_ELEMENT_THEORY":"SGP4","BSTAR":"0.00028199000000","TIME_SYSTEM":"UTC","TLE_LINE1":"1 46117U 20057A   23003.61288099  .00003920  00000-0  28199-3 0  9990"},{"ECCENTRICITY":"0.00016030","COUNTRY_CODE":"US","APOAPSIS":"548.354","EPHEMERIS_TYPE":"0","MEAN_MOTION_DOT":"0.00001836","OBJECT_NAME":"STARLINK-1588","RCS_SIZE":"LARGE","FILE":"3730889","CENTER_NAME":"EARTH","MEAN_MOTION_DDOT":"0.0000000000000","ARG_OF_PERICENTER":"82.2428","ELEMENT_SET_NO":"999","REF_FRAME":"TEME","RA_OF_ASC_NODE":"129.4413","EPOCH":"2023-01-03T11:44:43.537920","TLE_LINE2":"2 46118  53.0555 129.4413 0001603  82.2428 277.8743 15.06389967131709","PERIOD":"95.593","CLASSIFICATION_TYPE":"U","LAUNCH_DATE":"2020-08-18","OBJECT_ID":"2020-057B","OBJECT_TYPE":"PAYLOAD","INCLINATION":"53.0555","DECAY_DATE":null,"MEAN_ANOMALY":"277.8743","MEAN_MOTION":"15.06389967","GP_ID":"222089121","REV_AT_EPOCH":"13170","PERIAPSIS":"546.134","SEMIMAJOR_AXIS":"6925.379","SITE":"AFETR","NORAD_CAT_ID":"46118","BSTAR":"0.00014215000000","MEAN_ELEMENT_THEORY":"SGP4","TLE_LINE1":"1 46118U 20057B   23003.48939280  .00001836  00000-0  14215-3 0  9999","TIME_SYSTEM":"UTC"}];
